[
    {
        "Altitude(m)": 610405.3493936979,
        "Argument of Periapsis(deg)": 0.0,
        "Eccentricity": 0.0,
        "Inclination(deg)": 60.0,
        "Latitude(deg)": 52.111344301807264,
        "Longitude(deg)": 107.47745257890743,
        "Mean Anomaly(deg)": 114.5455,
        "RAAN(deg)": 75.0,
        "Satellite Name": "Test1 337",
        "Satellite Number": 337,
        "Semi-Major Axis(m)": 6980739.136638005,
        "Time(s)": 0
    },
    {
        "Altitude(m)": 610321.9223201331,
        "Argument of Periapsis(deg)": 0.00010418945913296404,
        "Eccentricity": 0.0,
        "Inclination(deg)": 60.0,
        "Latitude(deg)": 51.746058913465525,
        "Longitude(deg)": 108.24634718267905,
        "Mean Anomaly(deg)": 115.16560614546184,
        "RAAN(deg)": 74.99957995086027,
        "Satellite Name": "Test1 337",
        "Satellite Number": 337,
        "Semi-Major Axis(m)": 6980739.136638005,
        "Time(s)": 10
    }
]